NORAD_CAT_ID,OBJECT_NAME,OBJECT_TYPE,EPOCH,MEAN_MOTION,ECCENTRICITY,INCLINATION,RA_OF_ASC_NODE,ARG_OF_PERICENTER,MEAN_ANOMALY,BSTAR,MEAN_MOTION_DOT,MEAN_MOTION_DDOT,TLE_LINE0,TLE_LINE1,TLE_LINE2,SEMIMAJOR_AXIS,PERIOD,APOGEE,PERIGEE,DECAYED
53625.0,STARLINK-4603,PAYLOAD,2024-06-14 19:17:55,15.08845476,0.0001311,53.2161,195.0498,87.6934,272.4208,0.00010349,1.36e-05,0.0,0 STARLINK-4603,1 53625U 22104AP  24166.80411718  .00001360  00000-0  10349-3 0  9999,2 53625  53.2161 195.0498 0001311  87.6934 272.4208 15.08845476100206,6917.864,95.437,540.636,538.822,0.0
53625.0,STARLINK-4603,PAYLOAD,2024-06-15 11:11:47,15.08844234,0.0001324,53.216,192.0765,88.7061,271.4083,4.6232e-05,4.48e-06,0.0,0 STARLINK-4603,1 53625U 22104AP  24167.46651828  .00000448  00000-0  46232-4 0  9997,2 53625  53.2160 192.0765 0001324  88.7061 271.4083 15.08844234100308,6917.867,95.437,540.648,538.817,0.0
53625.0,STARLINK-4603,PAYLOAD,2024-06-15 19:08:42,15.08844428,0.0001312,53.2159,190.5894,88.894,271.2203,3.3654e-05,2.48e-06,0.0,0 STARLINK-4603,1 53625U 22104AP  24167.79771735  .00000248  00000-0  33654-4 0  9995,2 53625  53.2159 190.5894 0001312  88.8940 271.2203 15.08844428100358,6917.867,95.437,540.639,538.824,0.0
53625.0,STARLINK-4603,PAYLOAD,2024-06-16 07:51:48,15.08839579,0.0001358,53.2161,188.2108,88.9006,271.2142,-2.5534e-05,-6.94e-06,0.0,0 STARLINK-4603,1 53625U 22104AP  24168.32764147 -.00000694  00000-0 -25534-4 0  9999,2 53625  53.2161 188.2108 0001358  88.9006 271.2142 15.08839579100439,6917.882,95.438,540.686,538.807,0.0
53625.0,STARLINK-4603,PAYLOAD,2024-06-17 07:42:35,15.08840414,0.0001404,53.2163,183.7502,90.6166,269.4987,2.4665e-05,1.05e-06,0.0,0 STARLINK-4603,1 53625U 22104AP  24169.32123957  .00000105  00000-0  24665-4 0  9997,2 53625  53.2163 183.7502 0001404  90.6166 269.4987 15.08840414100580,6917.879,95.438,540.715,538.773,0.0
53625.0,STARLINK-4603,PAYLOAD,2024-06-18 04:22:36,15.08834129,0.0001362,53.2159,179.8835,89.096,271.0188,3.5865e-05,2.83e-06,0.0,0 STARLINK-4603,1 53625U 22104AP  24170.18236247  .00000283  00000-0  35865-4 0  9991,2 53625  53.2159 179.8835 0001362  89.0960 271.0188 15.08834129100035,6917.898,95.438,540.706,538.821,0.0
53625.0,STARLINK-4603,PAYLOAD,2024-06-18 05:57:59,15.08832715,0.000134,53.2157,179.5861,88.546,271.5685,2.6495e-05,1.34e-06,0.0,0 STARLINK-4603,1 53625U 22104AP  24170.24860387  .00000134  00000-0  26495-4 0  9990,2 53625  53.2157 179.5861 0001340  88.5460 271.5685 15.08832715100726,6917.903,95.438,540.695,538.841,0.0
53625.0,STARLINK-4603,PAYLOAD,2024-06-19 07:24:09,15.08838886,0.0001298,53.2157,174.8276,86.0076,274.1064,3.7563e-05,3.1e-06,0.0,0 STARLINK-4603,1 53625U 22104AP  24171.30844136  .00000310  00000-0  37563-4 0  9996,2 53625  53.2157 174.8276 0001298  86.0076 274.1064 15.08838886100200,6917.884,95.438,540.647,538.851,0.0
53625.0,STARLINK-4603,PAYLOAD,2024-06-19 16:56:28,15.0884005,0.00013,53.2158,173.0434,85.2927,274.8213,4.0088e-05,3.5e-06,0.0,0 STARLINK-4603,1 53625U 22104AP  24171.70588051  .00000350  00000-0  40088-4 0  9991,2 53625  53.2158 173.0434 0001300  85.2927 274.8213 15.08840050100948,6917.88,95.438,540.645,538.846,0.0
53625.0,STARLINK-4603,PAYLOAD,2024-06-20 04:04:10,15.08827965,0.0001293,53.2159,170.9611,85.0866,275.0274,-1.1304e-05,-4.68e-06,0.0,0 STARLINK-4603,1 53625U 22104AP  24172.16957118 -.00000468  00000-0 -11304-4 0  9997,2 53625  53.2159 170.9611 0001293  85.0866 275.0274 15.08827965100336,6917.917,95.438,540.677,538.888,0.0
53625.0,STARLINK-4603,PAYLOAD,2024-06-20 08:50:20,15.08827554,0.0001457,53.2173,170.0733,94.5963,265.5195,-8.3344e-06,-4.21e-06,0.0,0 STARLINK-4603,1 53625U 22104AP  24172.36829202 -.00000421  00000-0 -83344-5 0  9994,2 53625  53.2173 170.0733 0001457  94.5963 265.5195 15.08827554101042,6917.918,95.438,540.791,538.775,0.0
53625.0,STARLINK-4603,PAYLOAD,2024-06-20 16:47:15,15.08833288,0.0001602,53.2172,168.5863,110.5368,249.5796,-3.5104e-06,-3.44e-06,0.0,0 STARLINK-4603,1 53625U 22104AP  24172.69949031 -.00000344  00000-0 -35104-5 0  9998,2 53625  53.2172 168.5863 0001602 110.5368 249.5796 15.08833288101092,6917.901,95.438,540.874,538.658,0.0
53625.0,STARLINK-4603,PAYLOAD,2024-06-21 03:54:57,15.08837163,0.0001454,53.2174,166.5043,97.5734,262.5423,2.2793e-05,7.5e-07,0.0,0 STARLINK-4603,1 53625U 22104AP  24173.16316883  .00000075  00000-0  22793-4 0  9992,2 53625  53.2174 166.5043 0001454  97.5734 262.5423 15.08837163100488,6917.889,95.438,540.76,538.748,0.0
53625.0,STARLINK-4603,PAYLOAD,2024-06-21 07:05:44,15.08837344,0.0001433,53.2172,165.9093,96.8352,263.2803,2.1913e-05,6.1e-07,0.0,0 STARLINK-4603,1 53625U 22104AP  24173.29564895  .00000061  00000-0  21913-4 0  9992,2 53625  53.2172 165.9093 0001433  96.8352 263.2803 15.08837344101188,6917.889,95.438,540.745,538.762,0.0
53625.0,STARLINK-4603,PAYLOAD,2024-06-21 22:59:35,15.08834743,0.0001303,53.2162,162.9344,93.9454,266.1687,8.8755e-05,1.125e-05,0.0,0 STARLINK-4603,1 53625U 22104AP  24173.95804913  .00001125  00000-0  88755-4 0  9992,2 53625  53.2162 162.9344 0001303  93.9454 266.1687 15.08834743101283,6917.896,95.438,540.663,538.86,0.0
53625.0,STARLINK-4603,PAYLOAD,2024-06-22 08:31:54,15.08836776,0.0001295,53.2162,161.1501,93.3866,266.7275,7.647e-05,9.29e-06,0.0,0 STARLINK-4603,1 53625U 22104AP  24174.35548968  .00000929  00000-0  76470-4 0  9994,2 53625  53.2162 161.1501 0001295  93.3866 266.7275 15.08836776100668,6917.89,95.438,540.651,538.859,0.0
53625.0,STARLINK-4603,PAYLOAD,2024-06-23 08:22:40,15.08844957,0.0001325,53.2165,156.6892,92.738,267.3764,7.6221e-05,9.26e-06,0.0,0 STARLINK-4603,1 53625U 22104AP  24175.34908436  .00000926  00000-0  76221-4 0  9995,2 53625  53.2165 156.6892 0001325  92.7380 267.3764 15.08844957100818,6917.865,95.437,540.647,538.814,0.0
53625.0,STARLINK-4603,PAYLOAD,2024-06-23 22:41:09,15.08842169,0.0001345,53.2164,154.0127,90.5655,269.5491,3.6367e-05,2.91e-06,0.0,0 STARLINK-4603,1 53625U 22104AP  24175.94524609  .00000291  00000-0  36367-4 0  9999,2 53625  53.2164 154.0127 0001345  90.5655 269.5491 15.08842169101582,6917.874,95.437,540.669,538.808,0.0
53625.0,STARLINK-4603,PAYLOAD,2024-06-24 03:27:18,15.08841253,0.0001316,53.2163,153.1203,92.3935,267.7208,2.355e-05,8.7e-07,0.0,0 STARLINK-4603,1 53625U 22104AP  24176.14396663  .00000087  00000-0  23550-4 0  9992,2 53625  53.2163 153.1203 0001316  92.3935 267.7208 15.08841253100932,6917.877,95.437,540.652,538.831,0.0
53625.0,STARLINK-4603,PAYLOAD,2024-06-25 04:53:29,15.08839149,0.0001389,53.2169,148.362,102.2375,257.8773,-1.9548e-05,-5.99e-06,0.0,0 STARLINK-4603,1 53625U 22104AP  24177.20380801 -.00000599  00000-0 -19548-4 0  9999,2 53625  53.2169 148.3620 0001389 102.2375 257.8773 15.08839149101092,6917.883,95.438,540.709,538.787,0.0
53625.0,STARLINK-4603,PAYLOAD,2024-06-26 04:44:16,15.08837453,0.0001337,53.2169,143.9033,89.7234,270.3911,2.646e-05,1.33e-06,0.0,0 STARLINK-4603,1 53625U 22104AP  24178.19740913  .00000133  00000-0  26460-4 0  9995,2 53625  53.2169 143.9033 0001337  89.7234 270.3911 15.08837453101929,6917.888,95.438,540.678,538.828,0.0
53625.0,STARLINK-4603,PAYLOAD,2024-06-27 04:35:03,15.08835723,0.0001284,53.2165,139.4434,90.5531,269.5609,3.3195e-05,2.4e-06,0.0,0 STARLINK-4603,1 53625U 22104AP  24179.19101269  .00000240  00000-0  33195-4 0  9993,2 53625  53.2165 139.4434 0001284  90.5531 269.5609 15.08835723101394,6917.893,95.438,540.647,538.87,0.0
53625.0,STARLINK-4603,PAYLOAD,2024-06-27 14:07:22,15.08838267,0.0001272,53.2163,137.6569,81.5466,278.5671,5.6586e-05,6.13e-06,0.0,0 STARLINK-4603,1 53625U 22104AP  24179.58845129  .00000613  00000-0  56586-4 0  9999,2 53625  53.2163 137.6569 0001272  81.5466 278.5671 15.08838267102133,6917.886,95.438,540.631,538.871,0.0
53625.0,STARLINK-4603,PAYLOAD,2024-06-28 04:25:50,15.08812587,0.0001471,53.2167,134.9815,91.5543,268.5618,0.00036131,5.463e-05,0.0,0 STARLINK-4603,1 53625U 22104AP  24180.18461803  .00005463  00000-0  36131-3 0  9991,2 53625  53.2167 134.9815 0001471  91.5543 268.5618 15.08812587101540,6917.964,95.439,540.847,538.812,0.0
53625.0,STARLINK-4603,PAYLOAD,2024-06-28 13:58:09,15.08836051,0.0001383,53.2168,133.1974,88.9541,271.161,0.00022113,3.233e-05,0.0,0 STARLINK-4603,1 53625U 22104AP  24180.58205036  .00003233  00000-0  22113-3 0  9997,2 53625  53.2168 133.1974 0001383  88.9541 271.1610 15.08836051102284,6917.892,95.438,540.714,538.801,0.0
53625.0,STARLINK-4603,PAYLOAD,2024-06-29 13:48:55,15.08851238,0.0001368,53.2174,128.7343,77.6923,282.4222,8.2882e-05,1.032e-05,0.0,0 STARLINK-4603,1 53625U 22104AP  24181.57564215  .00001032  00000-0  82882-4 0  9999,2 53625  53.2174 128.7343 0001368  77.6923 282.4222 15.08851238102438,6917.846,95.437,540.657,538.765,0.0
53625.0,STARLINK-4603,PAYLOAD,2024-06-30 04:07:25,15.08834833,0.0001319,53.2164,126.0593,86.6529,273.4614,-4.0982e-05,-9.4e-06,0.0,0 STARLINK-4603,1 53625U 22104AP  24182.17181803 -.00000940  00000-0 -40982-4 0  9998,2 53625  53.2164 126.0593 0001319  86.6529 273.4614 15.08834833101844,6917.896,95.438,540.674,538.849,0.0
53625.0,STARLINK-4603,PAYLOAD,2024-06-30 05:42:48,15.0883552,0.0001388,53.2168,125.7615,86.1078,274.0073,-3.4474e-05,-8.36e-06,0.0,0 STARLINK-4603,1 53625U 22104AP  24182.23805783 -.00000836  00000-0 -34474-4 0  9998,2 53625  53.2168 125.7615 0001388  86.1078 274.0073 15.08835520102536,6917.894,95.438,540.719,538.799,0.0
53625.0,STARLINK-4603,PAYLOAD,2024-07-01 02:22:48,15.08841794,0.0001379,53.2168,121.8969,86.897,273.218,5.5777e-05,6e-06,0.0,0 STARLINK-4603,1 53625U 22104AP  24183.09917192  .00000600  00000-0  55777-4 0  9997,2 53625  53.2168 121.8969 0001379  86.8970 273.2180 15.08841794101981,6917.875,95.437,540.694,538.786,0.0
53625.0,STARLINK-4603,PAYLOAD,2024-07-01 13:30:29,15.08849912,0.0001355,53.2172,119.8166,86.4971,273.6176,7.2786e-05,8.71e-06,0.0,0 STARLINK-4603,1 53625U 22104AP  24183.56284562  .00000871  00000-0  72786-4 0  9996,2 53625  53.2172 119.8166 0001355  86.4971 273.6176 15.08849912102736,6917.85,95.437,540.652,538.778,0.0
